[{"OBJECT_NAME":"STARLINK-3582","OBJECT_ID":"2022-022X","EPOCH":"2026-03-09T22:56:15.036576","MEAN_MOTION":15.17112073,"ECCENTRICITY":0.00019498,"INCLINATION":53.2143,"RA_OF_ASC_NODE":3.953,"ARG_OF_PERICENTER":143.0365,"MEAN_ANOMALY":217.0766,"EPHEMERIS_TYPE":0,"CLASSIFICATION_TYPE":"U","NORAD_CAT_ID":51873,"ELEMENT_SET_NO":999,"REV_AT_EPOCH":22321,"BSTAR":0.0018716326,"MEAN_MOTION_DOT":0.00037432,"MEAN_MOTION_DDOT":0},{"OBJECT_NAME":"TPA-1","OBJECT_ID":"2025-135F","EPOCH":"2026-03-09T20:51:31.425408","MEAN_MOTION":15.20645482,"ECCENTRICITY":0.00056519,"INCLINATION":97.4555,"RA_OF_ASC_NODE":184.7205,"ARG_OF_PERICENTER":162.0288,"MEAN_ANOMALY":198.1148,"EPHEMERIS_TYPE":0,"CLASSIFICATION_TYPE":"U","NORAD_CAT_ID":64533,"ELEMENT_SET_NO":999,"REV_AT_EPOCH":3975,"BSTAR":0.00027699607,"MEAN_MOTION_DOT":6.013e-5,"MEAN_MOTION_DDOT":0}]
